NORAD_CAT_ID,OBJECT_NAME,OBJECT_TYPE,EPOCH,MEAN_MOTION,ECCENTRICITY,INCLINATION,RA_OF_ASC_NODE,ARG_OF_PERICENTER,MEAN_ANOMALY,BSTAR,MEAN_MOTION_DOT,MEAN_MOTION_DDOT,TLE_LINE0,TLE_LINE1,TLE_LINE2,SEMIMAJOR_AXIS,PERIOD,APOGEE,PERIGEE,DECAYED
55744.0,STARLINK-5601,PAYLOAD,2023-05-11 21:22:26,14.99301077,0.0003035,69.9998,328.6439,269.0966,90.9845,-4.2945e-05,-6.19e-06,0.0,0 STARLINK-5601,1 55744U 23028D   23131.89057995 -.00000619  00000-0 -42945-4 0  9998,2 55744  69.9998 328.6439 0003035 269.0966  90.9845 14.99301077 11335,6947.192,96.045,571.165,566.948,0.0
55744.0,STARLINK-5601,PAYLOAD,2023-05-11 22:58:30,14.99300931,0.0003044,69.9998,328.4754,269.2033,90.8777,-4.3956e-05,-6.32e-06,0.0,0 STARLINK-5601,1 55744U 23028D   23131.95729691 -.00000632  00000-0 -43956-4 0  9992,2 55744  69.9998 328.4754 0003044 269.2033  90.8777 14.99300931 11342,6947.192,96.045,571.172,566.942,0.0
55744.0,STARLINK-5601,PAYLOAD,2023-05-12 18:11:22,14.9930061,0.000318,69.9997,326.4533,270.069,90.0105,1.5991e-06,-7.4e-07,0.0,0 STARLINK-5601,1 55744U 23028D   23132.75789754 -.00000074  00000-0  15991-5 0  9995,2 55744  69.9997 326.4533 0003180 270.0690  90.0105 14.99300610 11468,6947.193,96.045,571.267,566.849,0.0
55744.0,STARLINK-5601,PAYLOAD,2023-05-12 22:59:35,14.99304165,0.0003158,69.9996,325.9471,269.9509,90.1289,3.8142e-05,3.73e-06,0.0,0 STARLINK-5601,1 55744U 23028D   23132.95804440  .00000373  00000-0  38142-4 0  9990,2 55744  69.9996 325.9471 0003158 269.9509  90.1289 14.99304165 11499,6947.182,96.045,571.241,566.853,0.0
55744.0,STARLINK-5601,PAYLOAD,2023-05-13 13:24:14,14.99298913,0.0003144,69.9996,324.4303,270.9456,89.1343,2.4735e-05,2.09e-06,0.0,0 STARLINK-5601,1 55744U 23028D   23133.55849898  .00000209  00000-0  24735-4 0  9994,2 55744  69.9996 324.4303 0003144 270.9456  89.1343 14.99298913 11587,6947.198,96.045,571.247,566.879,0.0
55744.0,STARLINK-5601,PAYLOAD,2023-05-13 21:24:35,14.99300532,0.0003122,69.9996,323.5883,270.3084,89.7717,4.0346e-05,4e-06,0.0,0 STARLINK-5601,1 55744U 23028D   23133.89208167  .00000400  00000-0  40346-4 0  9998,2 55744  69.9996 323.5883 0003122 270.3084  89.7717 14.99300532 11635,6947.193,96.045,571.227,566.889,0.0
55744.0,STARLINK-5601,PAYLOAD,2023-05-13 23:00:40,14.99300759,0.0003123,69.9996,323.4198,270.3572,89.723,4.1844e-05,4.18e-06,0.0,0 STARLINK-5601,1 55744U 23028D   23133.95879827  .00000418  00000-0  41844-4 0  9995,2 55744  69.9996 323.4198 0003123 270.3572  89.7230 14.99300759 11648,6947.193,96.045,571.227,566.888,0.0
55744.0,STARLINK-5601,PAYLOAD,2023-05-14 13:25:18,14.9930497,0.0003123,69.9995,321.9039,267.0185,93.0617,2.8827e-05,2.59e-06,0.0,0 STARLINK-5601,1 55744U 23028D   23134.55924643  .00000259  00000-0  28827-4 0  9998,2 55744  69.9995 321.9039 0003123 267.0185  93.0617 14.99304970 11733,6947.18,96.045,571.214,566.875,0.0
55744.0,STARLINK-5601,PAYLOAD,2023-05-14 19:49:52,14.9911169,0.0003371,69.9995,321.2306,290.4699,69.6099,-0.0020182,-0.00024582,0.0,0 STARLINK-5601,1 55744U 23028D   23134.82629718 -.00024582  00000-0 -20182-2 0  9994,2 55744  69.9995 321.2306 0003371 290.4699  69.6099 14.99111690 11770,6947.777,96.057,571.984,567.3,0.0
55744.0,STARLINK-5601,PAYLOAD,2023-05-14 21:26:02,14.99038914,0.0003405,69.9993,321.0624,265.7828,94.2943,-0.002797,-0.00033923,0.0,0 STARLINK-5601,1 55744U 23028D   23134.89308231 -.00033923  00000-0 -27970-2 0  9996,2 55744  69.9993 321.0624 0003405 265.7828  94.2943 14.99038914 11786,6948.001,96.062,572.232,567.501,0.0
55744.0,STARLINK-5601,PAYLOAD,2023-05-14 23:02:16,14.98922001,0.0003003,69.9992,320.894,269.7819,90.2996,-0.0040361,-0.00048658,0.0,0 STARLINK-5601,1 55744U 23028D   23134.95991352 -.00048658  00000-0 -40361-2 0  9995,2 55744  69.9992 320.8940 0003003 269.7819  90.2996 14.98922001 11794,6948.363,96.069,572.314,568.141,0.0
55744.0,STARLINK-5601,PAYLOAD,2023-05-15 10:15:10,14.98749381,0.0003335,69.9992,319.7151,267.7661,92.3117,-0.0053221,-0.00063712,0.0,0 STARLINK-5601,1 55744U 23028D   23135.42720038 -.00063712  00000-0 -53221-2 0  9996,2 55744  69.9992 319.7151 0003335 267.7661  92.3117 14.98749381 11860,6948.896,96.08,573.079,568.444,0.0
55744.0,STARLINK-5601,PAYLOAD,2023-05-15 18:15:43,14.9871973,0.0003105,69.9991,318.8734,268.0543,92.0261,-0.0051937,-0.00062142,0.0,0 STARLINK-5601,1 55744U 23028D   23135.76091453 -.00062142  00000-0 -51937-2 0  9993,2 55744  69.9991 318.8734 0003105 268.0543  92.0261 14.98719730 11912,6948.988,96.082,573.011,568.695,0.0
55744.0,STARLINK-5601,PAYLOAD,2023-05-16 13:29:06,14.9863585,0.0003217,69.9987,316.8524,267.1416,92.9375,-0.004793,-0.0005727,0.0,0 STARLINK-5601,1 55744U 23028D   23136.56188546 -.00057270  00000-0 -47930-2 0  9996,2 55744  69.9987 316.8524 0003217 267.1416  92.9375 14.98635850 12034,6949.247,96.087,573.348,568.877,0.0
55744.0,STARLINK-5601,PAYLOAD,2023-05-16 21:29:43,14.98614104,0.0003326,69.999,316.0106,266.8798,93.1981,-0.0046622,-0.00055691,0.0,0 STARLINK-5601,1 55744U 23028D   23136.89563743 -.00055691  00000-0 -46622-2 0  9990,2 55744  69.9990 316.0106 0003326 266.8798  93.1981 14.98614104 12086,6949.314,96.089,573.491,568.868,0.0
55744.0,STARLINK-5601,PAYLOAD,2023-05-17 05:30:23,14.98470236,0.0002973,69.9993,315.1691,272.8895,87.1923,-0.0023843,-0.0002853,0.0,0 STARLINK-5601,1 55744U 23028D   23137.22943822 -.00028530  00000-0 -23843-2 0  9990,2 55744  69.9993 315.1691 0002973 272.8895  87.1923 14.98470236 12131,6949.759,96.098,573.69,569.558,0.0
55744.0,STARLINK-5601,PAYLOAD,2023-05-17 22:00:00,14.98318514,0.0003281,70.0004,313.4357,272.8936,192.9657,0.0021996,0.00026243,0.0,0 STARLINK-5601,1 55744U 23028D   23137.91667824  .00026243  00000-0  21996-2 0  9995,2 55744  70.0004 313.4357 0003281 272.8936 192.9657 14.98318514 12236,6950.228,96.108,574.374,569.813,0.0
55744.0,STARLINK-5601,PAYLOAD,2023-05-18 11:56:58,14.98328132,0.0003158,69.9989,311.9706,269.5925,90.4872,4.8178e-05,4.82e-06,0.0,0 STARLINK-5601,1 55744U 23028D   23138.49790270  .00000482  00000-0  48178-4 0  9991,2 55744  69.9989 311.9706 0003158 269.5925  90.4872 14.98328132 12328,6950.199,96.107,574.259,569.869,0.0
55744.0,STARLINK-5601,PAYLOAD,2023-05-18 13:33:06,14.98328103,0.000316,69.999,311.8023,269.5721,90.5075,4.6697e-05,4.64e-06,0.0,0 STARLINK-5601,1 55744U 23028D   23138.56466279  .00000464  00000-0  46697-4 0  9992,2 55744  69.9990 311.8023 0003160 269.5721  90.5075 14.98328103 12333,6950.199,96.107,574.26,569.867,0.0
55744.0,STARLINK-5601,PAYLOAD,2023-05-19 18:23:31,14.98331514,0.0003191,69.999,308.7723,269.6416,90.4377,5.9847e-06,-2.2e-07,0.0,0 STARLINK-5601,1 55744U 23028D   23139.76634184 -.00000022  00000-0  59847-5 0  9990,2 55744  69.9990 308.7723 0003191 269.6416  90.4377 14.98331514 12515,6950.188,96.107,574.271,569.835,0.0
55744.0,STARLINK-5601,PAYLOAD,2023-05-19 21:35:48,14.98331769,0.0003192,69.999,308.4356,269.7362,90.3432,8.7476e-06,1.1e-07,0.0,0 STARLINK-5601,1 55744U 23028D   23139.89986148  .00000011  00000-0  87476-5 0  9990,2 55744  69.9990 308.4356 0003192 269.7362  90.3432 14.98331769 12531,6950.187,96.107,574.271,569.834,0.0
55744.0,STARLINK-5601,PAYLOAD,2023-05-20 20:01:40,14.9833831,0.0003061,69.9993,306.0792,271.0335,89.0473,9.6748e-05,1.062e-05,0.0,0 STARLINK-5601,1 55744U 23028D   23140.83449331  .00001062  00000-0  96748-4 0  9992,2 55744  69.9993 306.0792 0003061 271.0335  89.0473 14.98338310 12677,6950.167,96.106,574.16,569.905,0.0
55744.0,STARLINK-5601,PAYLOAD,2023-05-21 10:26:53,14.98323421,0.0002877,69.9997,304.5649,269.4989,90.584,-5.6883e-05,-7.72e-06,0.0,0 STARLINK-5601,1 55744U 23028D   23141.43534620 -.00000772  00000-0 -56883-4 0  9990,2 55744  69.9997 304.5649 0002877 269.4989  90.5840 14.98323421 12767,6950.213,96.107,574.078,570.079,0.0
55744.0,STARLINK-5601,PAYLOAD,2023-05-21 18:27:34,14.98320897,0.0002938,69.9996,303.7234,267.7217,92.3606,-8.3692e-05,-1.091e-05,0.0,0 STARLINK-5601,1 55744U 23028D   23141.76914962 -.00001091  00000-0 -83692-4 0  9990,2 55744  69.9996 303.7234 0002938 267.7217  92.3606 14.98320897 12810,6950.221,96.108,574.128,570.044,0.0
55744.0,STARLINK-5601,PAYLOAD,2023-05-22 04:04:22,14.98326234,0.0002961,69.9997,302.7134,267.9708,92.1112,-1.0238e-05,-2.15e-06,0.0,0 STARLINK-5601,1 55744U 23028D   23142.16970574 -.00000215  00000-0 -10238-4 0  9999,2 55744  69.9997 302.7134 0002961 267.9708  92.1112 14.98326234 12879,6950.205,96.107,574.127,570.012,0.0
55744.0,STARLINK-5601,PAYLOAD,2023-05-22 16:53:26,14.98338666,0.0002963,69.9998,301.3671,268.0064,92.0756,2.1447e-05,1.63e-06,0.0,0 STARLINK-5601,1 55744U 23028D   23142.70377603  .00000163  00000-0  21447-4 0  9997,2 55744  69.9998 301.3671 0002963 268.0064  92.0756 14.98338666 12954,6950.166,96.106,574.09,569.972,0.0
55744.0,STARLINK-5601,PAYLOAD,2023-05-22 20:05:42,14.98335878,0.0003018,69.9997,301.0303,267.8865,92.1948,-5.6562e-06,-1.61e-06,0.0,0 STARLINK-5601,1 55744U 23028D   23142.83729797 -.00000161  00000-0 -56562-5 0  9993,2 55744  69.9997 301.0303 0003018 267.8865  92.1948 14.98335878 12978,6950.175,96.107,574.137,569.942,0.0
55744.0,STARLINK-5601,PAYLOAD,2023-05-23 12:07:03,14.98323117,0.0003108,69.9995,299.3461,267.3524,92.728,8.7165e-05,9.47e-06,0.0,0 STARLINK-5601,1 55744U 23028D   23143.50490270  .00000947  00000-0  87165-4 0  9991,2 55744  69.9995 299.3461 0003108 267.3524  92.7280 14.98323117 13077,6950.214,96.107,574.239,569.919,0.0
55744.0,STARLINK-5601,PAYLOAD,2023-05-23 20:07:43,14.98324998,0.0003174,69.9993,298.5039,268.6196,91.46,8.4807e-05,9.19e-06,0.0,0 STARLINK-5601,1 55744U 23028D   23143.83870269  .00000919  00000-0  84807-4 0  9996,2 55744  69.9993 298.5039 0003174 268.6196  91.4600 14.98324998 13125,6950.208,96.107,574.279,569.867,0.0
55744.0,STARLINK-5601,PAYLOAD,2023-05-24 13:45:12,14.98332091,0.0003144,69.9995,296.6517,269.3649,90.715,-8.4176e-06,-1.93e-06,0.0,0 STARLINK-5601,1 55744U 23028D   23144.57306131 -.00000193  00000-0 -84176-5 0  9996,2 55744  69.9995 296.6517 0003144 269.3649  90.7150 14.98332091 13232,6950.186,96.107,574.237,569.866,0.0
